[
    {
        "CCSDS_OMM_VERS": "3.0",
        "COMMENT": "GENERATED VIA SPACE-TRACK.ORG API",
        "CREATION_DATE": "2025-04-14T06:36:32",
        "ORIGINATOR": "18 SPCS",
        "OBJECT_NAME": "BEIDOU 16",
        "OBJECT_ID": "2012-059A",
        "CENTER_NAME": "EARTH",
        "REF_FRAME": "TEME",
        "TIME_SYSTEM": "UTC",
        "MEAN_ELEMENT_THEORY": "SGP4",
        "EPOCH": "2025-04-14T00:21:45.655200",
        "MEAN_MOTION": "1.00269190",
        "ECCENTRICITY": "0.00107080",
        "INCLINATION": "3.3297",
        "RA_OF_ASC_NODE": "77.9092",
        "ARG_OF_PERICENTER": "309.6147",
        "MEAN_ANOMALY": "264.2920",
        "EPHEMERIS_TYPE": "0",
        "CLASSIFICATION_TYPE": "U",
        "NORAD_CAT_ID": "38953",
        "ELEMENT_SET_NO": "999",
        "REV_AT_EPOCH": "4574",
        "BSTAR": "0.00000000000000",
        "MEAN_MOTION_DOT": "-0.00000164",
        "MEAN_MOTION_DDOT": "0.0000000000000",
        "SEMIMAJOR_AXIS": "42165.459",
        "PERIOD": "1436.134",
        "APOAPSIS": "35832.475",
        "PERIAPSIS": "35742.174",
        "OBJECT_TYPE": "PAYLOAD",
        "RCS_SIZE": "LARGE",
        "COUNTRY_CODE": "PRC",
        "LAUNCH_DATE": "2012-10-25",
        "SITE": "XSC",
        "DECAY_DATE": null,
        "FILE": "4701405",
        "GP_ID": "285555053",
        "TLE_LINE0": "0 BEIDOU 16",
        "TLE_LINE1": "1 38953U 12059A   25104.01511175 -.00000164  00000-0  00000+0 0  9999",
        "TLE_LINE2": "2 38953   3.3297  77.9092 0010708 309.6147 264.2920  1.00269190 45747"
    }
]